GAOFEN DUOMO (GFDM)     
1 45856U 20042A   25128.91941284  .00001143  00000+0  16912-3 0  9992
2 45856  97.8257 197.1791 0012113 314.1924  45.8290 14.77003686261341
ZINYUAN-3               
1 45939U 20051A   25128.94921281  .00006791  00000+0  30708-3 0  9995
2 45939  97.3277 203.4753 0004867   8.9906 351.1416 15.21231172265883
TYVAK-0172              
1 46267U 20059C   25128.59917982  .00022523  00000+0  75555-3 0  9992
2 46267  97.7820 346.4347 0000821 132.1948 227.9362 15.30903453256063
ION-MK01                
1 46274U 20061C   25128.73083834  .00028221  00000+0  51061-3 0  9996
2 46274  97.2481 196.2502 0002001  28.7623 331.3738 15.49637230260042
UPMSAT-2                
1 46276U 20061E   25128.74925399  .00066812  00000+0  68855-3 0  9997
2 46276  97.2464 202.1582 0001269 155.7490 204.3830 15.64620767260482
NEMO-HD                 
1 46277U 20061F   25128.93594720  .00009686  00000+0  28277-3 0  9999
2 46277  97.2473 191.2369 0002754  86.0614 274.0945 15.35521011259779
3CAT-5A                 
1 46292U 20061W   25128.73443320  .00011855  00000+0  37090-3 0  9997
2 46292  97.2974 189.6915 0004123 124.2269 235.9364 15.33270692258812
3CAT-5B                 
1 46293U 20061X   25128.67999445  .00011690  00000+0  36066-3 0  9994
2 46293  97.2985 190.0826 0004016 125.3332 234.8287 15.33720216258809
OSM-1 CICERO            
1 46294U 20061Y   25128.70566749  .00088435  00000+0  80429-3 0  9999
2 46294  97.3089 203.8367 0003215 155.9609 204.1803 15.67674391259720
NAPA-1                  
1 46320U 20061BA  25128.91840097  .00023127  00000+0  58448-3 0  9996
2 46320  97.3028 194.1710 0002601 101.8678 258.2860 15.39799571259114
JILIN-1 GAOFEN 3B       
1 46454U 20065A   25128.91721481  .00029365  00000+0  68092-3 0  9999
2 46454  97.2872 176.8021 0006784 144.7089 215.4609 15.42341291257365
JILIN-1 GAOFEN 3E       
1 46457U 20065D   25128.95324501  .00020328  00000+0  58675-3 0  9994
2 46457  97.2892 175.5902 0022219 190.7730 169.3041 15.35461676257278
JILIN-1 GAOFEN 3F       
1 46458U 20065E   25128.91869072  .00019697  00000+0  57948-3 0  9997
2 46458  97.2825 173.9578 0024052 177.7828 182.3527 15.34824447257267
JILIN-1 GAOFEN 3G       
1 46459U 20065F   25128.96450976  .00024402  00000+0  67161-3 0  9990
2 46459  97.2937 177.6723 0023274  92.1242 268.2668 15.36883664257336
JILIN-1 GAOFEN 3H       
1 46460U 20065G   25128.92480447  .00021595  00000+0  60192-3 0  9991
2 46460  97.2848 175.0113 0012894  29.6761 330.5212 15.36708174257319
JILIN-1 GAOFEN 3J       
1 46462U 20065J   25128.95190291  .00028233  00000+0  67516-3 0  9994
2 46462  97.2877 176.8559 0007210 151.0865 209.0783 15.41417564257372
HAIYANG-2C              
1 46469U 20066A   25128.89344513 -.00000001  00000+0  72812-4 0  9993
2 46469  65.9940 141.8882 0010254 299.6828  60.3219 13.83372907233576
HJ-2A                   
1 46478U 20067A   25128.93388929  .00001070  00000+0  16070-3 0  9997
2 46478  97.9131 211.0381 0004667 107.0446 253.1276 14.76538511248609
HJ-2B                   
1 46479U 20067B   25128.90197274  .00001090  00000+0  16354-3 0  9993
2 46479  97.9181 211.7497 0000743 169.8826 190.2399 14.76535825248601
GONETS-M 17             
1 46486U 20068A   25128.94854349  .00000013  00000+0  22741-4 0  9991
2 46486  82.4982 238.9421 0023271 194.2111 165.8317 12.42893676208948
GONETS-M 18             
1 46487U 20068B   25128.91566658  .00000016  00000+0  45432-4 0  9997
2 46487  82.4938 238.2391 0020522 190.7358 169.3286 12.42884079208928
GONETS-M 19             
1 46488U 20068C   25128.88839660  .00000013  00000+0  22518-4 0  9997
2 46488  82.4962 238.6186 0013800 203.5165 156.5285 12.42857399209026
DEKART                  
1 46493U 20068H   25128.87766315  .00011883  00000+0  45663-3 0  9990
2 46493  97.8558 108.2497 0009343 268.4981  91.5186 15.26560777253880
NORBI                   
1 46494U 20068J   25128.92488985  .00014753  00000+0  49447-3 0  9994
2 46494  97.8539 110.6774 0007907 257.6311 102.4044 15.31002247254049
SALSAT                  
1 46495U 20068K   25128.47775979  .00008726  00000+0  38172-3 0  9993
2 46495  97.8583 105.0387 0009471 274.9953  85.0201 15.22286115253643
ICEYE-X6                
1 46497U 20068M   25128.92894674  .00004794  00000+0  38354-3 0  9992
2 46497  98.0524 100.4069 0006025  28.0288 332.1258 15.00690659252522
NETSAT-4                
1 46504U 20068U   25128.49637234  .00015876  00000+0  55631-3 0  9990
2 46504  97.8434 104.5378 0005922 332.5725  27.5200 15.29551787253645
NETSAT-3                
1 46505U 20068V   25128.45823992  .00014172  00000+0  51892-3 0  9998
2 46505  97.8434 103.5145 0006073 345.4965  14.6098 15.28136463253601
NETSAT-1                
1 46506U 20068W   25128.47843432  .00011221  00000+0  47180-3 0  9999
2 46506  97.8459 101.5909 0006372   0.4013 359.7226 15.23575732253471
NETSAT-2                
1 46507U 20068X   25128.47865933  .00015391  00000+0  54584-3 0  9998
2 46507  97.8433 104.0262 0005427   7.7480 352.3842 15.29167326253589
TIANQI-6                
1 46810U 20076D   25128.93287924  .00004672  00000+0  33932-3 0  9997
2 46810  35.0014   1.9158 0011920 220.8675 139.1140 15.03258551247637
KSM1-C                  
1 46906U 20081B   25128.90083668  .00009200  00000+0  44040-3 0  9999
2 46906  36.8950  18.4048 0001798  56.0530 304.0387 15.18476091247524
KSM1-D                  
1 46907U 20081C   25128.89835711  .00008572  00000+0  42347-3 0  9991
2 46907  36.8980  21.6538 0003181  96.9601 263.1507 15.17407688247511
KSM1-A                  
1 46912U 20081H   25128.95272323  .00008724  00000+0  42253-3 0  9993
2 46912  36.8977  18.2858 0003098 207.3499 152.7085 15.18090692247563
R2                      
1 46913U 20081J   25128.02449482  .00007538  00000+0  36784-3 0  9998
2 46913  36.9010  22.5002 0006382 117.9855 242.1538 15.17882257250244
KSM1-B                  
1 46914U 20081K   25128.92536138  .00008038  00000+0  39865-3 0  9992
2 46914  36.9026  21.3387 0005047 131.8214 228.2964 15.17292986250619
GONETS-M 20             
1 47227U 20091A   25128.90670472  .00000038  00000+0  20623-3 0  9993
2 47227  82.5062 193.7160 0019760 347.0095  13.0473 12.42896173200851
GONETS-M 21             
1 47228U 20091B   25128.88115169  .00000029  00000+0  13766-3 0  9998
2 47228  82.4986 192.6921 0014008   2.5271 357.5877 12.42866790200843
GONETS-M 22             
1 47229U 20091C   25128.93343262  .00000015  00000+0  40805-4 0  9992
2 47229  82.5044 193.3648 0020483 340.8298  19.2008 12.42855506200802
CUBEL                   
1 47448U 21006AM  25128.66102359  .00007430  00000+0  25291-3 0  9991
2 47448  97.2914 179.4452 0008810 177.1572 182.9720 15.30667792237658
ASTROCAST-0103          
1 47487U 21006CC  25128.71158171  .00023281  00000+0  48612-3 0  9997
2 47487  97.3048 186.9725 0006744 154.9119 205.2459 15.45503011238108
ASTROCAST-0104          
1 47519U 21006DK  25128.68035414  .00021182  00000+0  46753-3 0  9995
2 47519  97.2979 185.6195 0006802 140.3194 219.8553 15.43880525238067
ARKTIKA-M 1             
1 47719U 21016A   25128.25181123  .00000093  00000+0  00000+0 0  9999
2 47719  63.1460 112.7749 7089332 268.5839  16.7442  2.00602936 30661
STARLINK-2342           
1 47883U 21021Z   25128.50457202 -.00000729  00000+0 -30053-4 0  9993
2 47883  53.0540 206.6458 0001191 100.6739 259.4385 15.06402844230294
GRUS-1B                 
1 47934U 21022C   25128.94641306  .00001429  00000+0  12675-3 0  9994
2 47934  97.5895  19.4551 0016354 240.6678 119.2911 14.97638948225360
2021-022F               
1 47937U 21022F   25128.91340142  .00008629  00000+0  34656-3 0  9990
2 47937  97.4278  26.5211 0013584  85.7808 274.4982 15.25111016227946
CANYVAL-C (PUMBAA)      
1 47938U 21022G   25128.92689379  .00401171  00000+0  14309-2 0  9991
2 47938  97.4132  40.9658 0007563 105.3942 254.8165 15.87886996228938
WILDTRACKCUBE-SIMBA     
1 47941U 21022K   25128.95925371  .00032820  00000+0  72845-3 0  9994
2 47941  97.4261  32.8194 0012533  73.4667 286.7956 15.43569420228318
ELSA-D                  
1 47944U 21022N   25128.73110350  .00101429  00000+0  87783-3 0  9995
2 47944  97.4271  40.7314 0008231  70.9426 289.2726 15.68816639228833
UNISAT-7                
1 47945U 21022P   25128.70030653  .00010712  00000+0  38552-3 0  9994
2 47945  97.4253  27.4130 0013691  80.3899 279.8887 15.28689122227841
2021-022Q               
1 47946U 21022Q   25128.93978176  .00051382  00000+0  82693-3 0  9994
2 47946  97.4265  37.1952 0009706  58.4416 301.7784 15.52766427228627
CUBESX-SIRIUS-HSE       
1 47951U 21022V   25128.92035992  .00305203  00000+0  14175-2 0  9992
2 47951  97.4163  40.5715 0008427  95.0001 265.2230 15.82566341228829
CUBESX-HSE              
1 47952U 21022W   25128.93498827  .00286983  00000+0  13068-2 0  9997
2 47952  97.4182  40.8443 0007634  94.3855 265.8286 15.83044370228843
2021-022X               
1 47953U 21022X   25128.88505303  .00020690  00000+0  57041-3 0  9991
2 47953  97.4238  29.4937 0013586  80.7805 279.4976 15.37051613227858
2021-022AC              
1 47958U 21022AC  25128.91343477  .00025761  00000+0  65323-3 0  9998
2 47958  97.4199  30.2442 0013124  79.0445 281.2277 15.39592006227009
GRBALPHA                
1 47959U 21022AD  25128.91889401  .00282448  00000+0  13564-2 0  9997
2 47959  97.4165  40.9192 0008010  93.8448 266.3736 15.81904467227669
GLOBAL-9                
1 47971U 21023G   25128.94796106  .00016619  00000+0  45754-3 0  9996
2 47971  44.9859 340.9179 0008958 268.6216  91.3644 15.36980473232610
AII-BRAVO               
1 48270U 21034C   25128.70833089  .00005988  00000+0  49777-3 0  9993
2 48270  97.6070 187.9247 0005180 142.5102 217.6483 14.99069406218931
TYVAK-182A              
1 48271U 21034D   25128.71813976  .00006807  00000+0  53640-3 0  9993
2 48271  97.6177 189.7688 0002033 311.2971  48.8078 15.01088370219055
